{"fetched_at":"2026-03-29T16:36:15Z","count":15609,"tles":[{"name":"STARLINK-33856","line1":"1 63638U 25083E   26087.48634456  .00038383  00000+0  13962-2 0  9994","line2":"2 63638  42.9981 258.8770 0000719 272.3948  87.6821 15.27599950 52944","category":"Starlink"}]}